STARLINK-36325          
1 67861U 26034M   26071.82112561  .00273926  00000+0  13399-2 0  9990
2 67861  53.1582 195.5667 0000820 101.6865 258.4250 15.81000759  4433
STARLINK-36332          
1 67862U 26034N   26071.82037753  .00241843  00000+0  11885-2 0  9991
2 67862  53.1582 195.5620 0001220  89.0467 271.0696 15.80989201  4437
STARLINK-36835          
1 67863U 26034P   26071.94606677  .00306366  00000+0  14932-2 0  9990
2 67863  53.1586 194.9215 0001393  54.7404 305.3749 15.80990700  4454
STARLINK-36831          
1 67864U 26034Q   26071.94531549  .00247109  00000+0  12138-2 0  9991
2 67864  53.1582 194.9172 0001402  55.8130 304.3026 15.80983776  4454
STARLINK-36738          
1 67865U 26034R   26071.94456601  .00283589  00000+0  13860-2 0  9992
2 67865  53.1582 194.9117 0001278  65.2941 294.8215 15.80993650  4455
STARLINK-36780          
1 67866U 26034S   26071.94381355  .00291438  00000+0  14224-2 0  9993
2 67866  53.1588 194.9049 0001025  61.6894 298.4232 15.81001598  4454
STARLINK-36761          
1 67867U 26034T   26071.94306504  .00163238  00000+0  81210-3 0  9993
2 67867  53.1588 194.9005 0001273  64.6220 295.4935 15.80951350  4454
STARLINK-36762          
1 67868U 26034U   26071.94231564  .00164175  00000+0  81697-3 0  9997
2 67868  53.1587 194.8955 0001188  63.1563 296.9581 15.80943252  4451
STARLINK-36779          
1 67869U 26034V   26071.94156602  .00177892  00000+0  88336-3 0  9994
2 67869  53.1588 194.8901 0001306  56.9774 303.1374 15.80947232  4453
STARLINK-36770          
1 67870U 26034W   26071.94006210  .00309863  00000+0  15087-2 0  9992
2 67870  53.1586 194.8793 0000654  14.2977 345.8064 15.81002349  4450
STARLINK-36769          
1 67871U 26034X   26071.94082070  .00187658  00000+0  93050-3 0  9994
2 67871  53.1584 194.8852 0001052  72.5599 287.5539 15.80949760  4450
STARLINK-36786          
1 67872U 26034Y   26071.93932165  .00090702  00000+0  45773-3 0  9995
2 67872  53.1586 194.8759 0002292  43.0159 317.1043 15.80896935  4456
